*******************************************************************************
Ephemeris / WWW_USER Fri Mar  7 10:49:20 2025 Pasadena, USA      / Horizons    
*******************************************************************************
Target body name: (2018 TS1)                      {source: JPL#6}
Center body name: Earth (399)                     {source: DE441}
Center-site name: Mauna Kea
*******************************************************************************
Start time      : A.D. 2018-Oct-04 04:17:00.0000 UT      
Stop  time      : A.D. 2018-Oct-04 16:04:00.0000 UT      
Step-size       : 1 minutes
*******************************************************************************
Target pole/equ : undefined
Target radii    : undefined                                                    
Center geodetic : 204.5278, 19.8260847, 4.21024   {E-lon(deg),Lat(deg),Alt(km)}
Center cylindric: 204.5278, 6006.35451, 2151.0229 {E-lon(deg),Dxy(km),Dz(km)}
Center pole/equ : ITRF93                          {East-longitude positive}
Center radii    : 6378.137, 6378.137, 6356.752 km {Equator_a, b, pole_c}       
Target primary  : Sun
Vis. interferer : MOON (R_eq= 1737.400) km        {source: DE441}
Rel. light bend : Sun                             {source: DE441}
Rel. lght bnd GM: 1.3271E+11 km^3/s^2                                          
Small-body perts: Yes                             {source: SB441-N16}
Atmos refraction: NO (AIRLESS)
RA format       : HMS
Time format     : CAL 
Calendar mode   : Mixed Julian/Gregorian
RTS-only print  : NO       
EOP file        : eop.250306.p250602                                           
EOP coverage    : DATA-BASED 1962-JAN-20 TO 2025-MAR-06. PREDICTS-> 2025-JUN-01
Units conversion: 1 au= 149597870.700 km, c= 299792.458 km/s, 1 day= 86400.0 s 
Table cut-offs 1: Elevation (-90.0deg=NO ),Airmass (>38.000=NO), Daylight (YES)
Table cut-offs 2: Solar elongation (  0.0,180.0=NO ),Local Hour Angle( 0.0=NO )
Table cut-offs 3: RA/DEC angular rate (     0.0=NO )                           
*******************************************************************************
Initial IAU76/J2000 heliocentric ecliptic osculating elements (au, days, deg.):
  EPOCH=  2458397.5 ! 2018-Oct-06.00 (TDB)         Residual RMS= .30565        
   EC= .4232280089037878   QR= .7951431742456924   TP= 2458457.9340165281      
   OM= 356.454891650426    W=  97.01949783285009   IN= 2.243887958983723       
  Equivalent ICRF heliocentric cartesian coordinates (au, au/d):
   X= 1.037748414669454E+00  Y= 2.036665248544260E-01  Z= 1.007134111375925E-01
  VX=-1.028941390482545E-02 VY= 1.387292408111162E-02 VZ= 6.642652492995660E-03
Asteroid physical parameters (km, seconds, rotational period in hours):        
   GM= n.a.                RAD= n.a.               ROTPER= n.a.                
   H= 25.7                 G= .150                 B-V= n.a.                   
                           ALBEDO= n.a.            STYP= n.a.                  
*******************************************************************************
 Date__(UT)__HR:MN     R.A._________(ICRF)_________DEC
******************************************************
$$SOE
 2018-Oct-04 04:17 C   00 27 47.779433 +11 37 27.68480
 2018-Oct-04 04:18 C   00 27 47.683366 +11 37 30.26158
 2018-Oct-04 04:19 C   00 27 47.587143 +11 37 32.83862
 2018-Oct-04 04:20 C   00 27 47.490765 +11 37 35.41593
 2018-Oct-04 04:21 C   00 27 47.394230 +11 37 37.99350
 2018-Oct-04 04:22 C   00 27 47.297541 +11 37 40.57134
 2018-Oct-04 04:23 C   00 27 47.200695 +11 37 43.14944
 2018-Oct-04 04:24 C   00 27 47.103694 +11 37 45.72779
 2018-Oct-04 04:25 C   00 27 47.006537 +11 37 48.30641
 2018-Oct-04 04:26 C   00 27 46.909225 +11 37 50.88528
 2018-Oct-04 04:27 C   00 27 46.811757 +11 37 53.46440
 2018-Oct-04 04:28 C   00 27 46.714134 +11 37 56.04378
 2018-Oct-04 04:29 C   00 27 46.616356 +11 37 58.62340
 2018-Oct-04 04:30 C   00 27 46.518422 +11 38 01.20327
 2018-Oct-04 04:31 N   00 27 46.420333 +11 38 03.78339
 2018-Oct-04 04:32 N   00 27 46.322088 +11 38 06.36376
 2018-Oct-04 04:33 N   00 27 46.223689 +11 38 08.94436
 2018-Oct-04 04:34 N   00 27 46.125134 +11 38 11.52521
 2018-Oct-04 04:35 N   00 27 46.026424 +11 38 14.10630
 2018-Oct-04 04:36 N   00 27 45.927559 +11 38 16.68762
 2018-Oct-04 04:37 N   00 27 45.828540 +11 38 19.26918
 2018-Oct-04 04:38 N   00 27 45.729365 +11 38 21.85097
 2018-Oct-04 04:39 N   00 27 45.630036 +11 38 24.43300
 2018-Oct-04 04:40 N   00 27 45.530552 +11 38 27.01525
 2018-Oct-04 04:41 N   00 27 45.430914 +11 38 29.59773
 2018-Oct-04 04:42 N   00 27 45.331120 +11 38 32.18044
 2018-Oct-04 04:43 N   00 27 45.231173 +11 38 34.76337
 2018-Oct-04 04:44 N   00 27 45.131071 +11 38 37.34652
 2018-Oct-04 04:45 N   00 27 45.030815 +11 38 39.92990
 2018-Oct-04 04:46 N   00 27 44.930405 +11 38 42.51349
 2018-Oct-04 04:47 N   00 27 44.829840 +11 38 45.09730
 2018-Oct-04 04:48 N   00 27 44.729122 +11 38 47.68132
 2018-Oct-04 04:49 N   00 27 44.628250 +11 38 50.26556
 2018-Oct-04 04:50 N   00 27 44.527224 +11 38 52.85001
 2018-Oct-04 04:51 N   00 27 44.426044 +11 38 55.43467
 2018-Oct-04 04:52 N   00 27 44.324711 +11 38 58.01954
 2018-Oct-04 04:53 N   00 27 44.223225 +11 39 00.60461
 2018-Oct-04 04:54 N   00 27 44.121585 +11 39 03.18988
 2018-Oct-04 04:55 N   00 27 44.019792 +11 39 05.77536
 2018-Oct-04 04:56 A   00 27 43.917846 +11 39 08.36104
 2018-Oct-04 04:57 A   00 27 43.815747 +11 39 10.94692
 2018-Oct-04 04:58 A   00 27 43.713495 +11 39 13.53299
 2018-Oct-04 04:59 A   00 27 43.611091 +11 39 16.11926
 2018-Oct-04 05:00 A   00 27 43.508534 +11 39 18.70572
 2018-Oct-04 05:01 A   00 27 43.405824 +11 39 21.29237
 2018-Oct-04 05:02 A   00 27 43.302963 +11 39 23.87922
 2018-Oct-04 05:03 A   00 27 43.199949 +11 39 26.46625
 2018-Oct-04 05:04 A   00 27 43.096783 +11 39 29.05346
 2018-Oct-04 05:05 A   00 27 42.993466 +11 39 31.64086
 2018-Oct-04 05:06 A   00 27 42.889996 +11 39 34.22844
 2018-Oct-04 05:07 A   00 27 42.786375 +11 39 36.81620
 2018-Oct-04 05:08 A   00 27 42.682603 +11 39 39.40414
 2018-Oct-04 05:09 A   00 27 42.578680 +11 39 41.99226
 2018-Oct-04 05:10 A   00 27 42.474605 +11 39 44.58055
 2018-Oct-04 05:11 A   00 27 42.370380 +11 39 47.16902
 2018-Oct-04 05:12 A   00 27 42.266004 +11 39 49.75765
 2018-Oct-04 05:13 A   00 27 42.161477 +11 39 52.34646
 2018-Oct-04 05:14 A   00 27 42.056800 +11 39 54.93543
 2018-Oct-04 05:15 A   00 27 41.951973 +11 39 57.52457
 2018-Oct-04 05:16 A   00 27 41.846995 +11 40 00.11387
 2018-Oct-04 05:17 A   00 27 41.741868 +11 40 02.70334
 2018-Oct-04 05:18 A   00 27 41.636591 +11 40 05.29296
 2018-Oct-04 05:19 A   00 27 41.531165 +11 40 07.88275
 2018-Oct-04 05:20 A   00 27 41.425589 +11 40 10.47269
 2018-Oct-04 05:21 A   00 27 41.319864 +11 40 13.06279
 2018-Oct-04 05:22     00 27 41.213990 +11 40 15.65304
 2018-Oct-04 05:23     00 27 41.107968 +11 40 18.24344
 2018-Oct-04 05:24     00 27 41.001797 +11 40 20.83399
 2018-Oct-04 05:25     00 27 40.895478 +11 40 23.42469
 2018-Oct-04 05:26     00 27 40.789010 +11 40 26.01553
 2018-Oct-04 05:27     00 27 40.682395 +11 40 28.60652
 2018-Oct-04 05:28     00 27 40.575632 +11 40 31.19765
 2018-Oct-04 05:29     00 27 40.468721 +11 40 33.78892
 2018-Oct-04 05:30     00 27 40.361663 +11 40 36.38033
 2018-Oct-04 05:31     00 27 40.254458 +11 40 38.97188
 2018-Oct-04 05:32     00 27 40.147106 +11 40 41.56357
 2018-Oct-04 05:33     00 27 40.039608 +11 40 44.15538
 2018-Oct-04 05:34     00 27 39.931963 +11 40 46.74733
 2018-Oct-04 05:35     00 27 39.824172 +11 40 49.33941
 2018-Oct-04 05:36     00 27 39.716235 +11 40 51.93162
 2018-Oct-04 05:37     00 27 39.608152 +11 40 54.52396
 2018-Oct-04 05:38     00 27 39.499924 +11 40 57.11642
 2018-Oct-04 05:39     00 27 39.391551 +11 40 59.70900
 2018-Oct-04 05:40     00 27 39.283032 +11 41 02.30170
 2018-Oct-04 05:41     00 27 39.174369 +11 41 04.89453
 2018-Oct-04 05:42     00 27 39.065561 +11 41 07.48747
 2018-Oct-04 05:43     00 27 38.956609 +11 41 10.08053
 2018-Oct-04 05:44     00 27 38.847513 +11 41 12.67370
 2018-Oct-04 05:45     00 27 38.738273 +11 41 15.26699
 2018-Oct-04 05:46     00 27 38.628890 +11 41 17.86038
 2018-Oct-04 05:47     00 27 38.519363 +11 41 20.45389
 2018-Oct-04 05:48     00 27 38.409694 +11 41 23.04750
 2018-Oct-04 05:49     00 27 38.299881 +11 41 25.64122
 2018-Oct-04 05:50     00 27 38.189927 +11 41 28.23505
 2018-Oct-04 05:51     00 27 38.079830 +11 41 30.82897
 2018-Oct-04 05:52     00 27 37.969591 +11 41 33.42300
 2018-Oct-04 05:53     00 27 37.859210 +11 41 36.01713
 2018-Oct-04 05:54     00 27 37.748688 +11 41 38.61135
 2018-Oct-04 05:55     00 27 37.638025 +11 41 41.20567
 2018-Oct-04 05:56     00 27 37.527222 +11 41 43.80008
 2018-Oct-04 05:57     00 27 37.416277 +11 41 46.39458
 2018-Oct-04 05:58     00 27 37.305193 +11 41 48.98918
 2018-Oct-04 05:59     00 27 37.193968 +11 41 51.58386
 2018-Oct-04 06:00     00 27 37.082604 +11 41 54.17864
 2018-Oct-04 06:01     00 27 36.971100 +11 41 56.77349
 2018-Oct-04 06:02     00 27 36.859458 +11 41 59.36843
 2018-Oct-04 06:03     00 27 36.747676 +11 42 01.96345
 2018-Oct-04 06:04     00 27 36.635756 +11 42 04.55856
 2018-Oct-04 06:05     00 27 36.523698 +11 42 07.15374
 2018-Oct-04 06:06     00 27 36.411502 +11 42 09.74900
 2018-Oct-04 06:07     00 27 36.299169 +11 42 12.34433
 2018-Oct-04 06:08     00 27 36.186698 +11 42 14.93974
 2018-Oct-04 06:09     00 27 36.074090 +11 42 17.53522
 2018-Oct-04 06:10     00 27 35.961346 +11 42 20.13077
 2018-Oct-04 06:11     00 27 35.848465 +11 42 22.72639
 2018-Oct-04 06:12     00 27 35.735448 +11 42 25.32208
 2018-Oct-04 06:13     00 27 35.622296 +11 42 27.91783
 2018-Oct-04 06:14     00 27 35.509009 +11 42 30.51364
 2018-Oct-04 06:15     00 27 35.395586 +11 42 33.10952
 2018-Oct-04 06:16     00 27 35.282029 +11 42 35.70546
 2018-Oct-04 06:17     00 27 35.168337 +11 42 38.30146
 2018-Oct-04 06:18     00 27 35.054511 +11 42 40.89751
 2018-Oct-04 06:19     00 27 34.940552 +11 42 43.49362
